[{"OBJECT_NAME":"METEOR-M2 4","OBJECT_ID":"2024-039A","EPOCH":"2026-03-10T00:01:13.262016","MEAN_MOTION":14.22417348,"ECCENTRICITY":0.0008181,"INCLINATION":98.6907,"RA_OF_ASC_NODE":29.6041,"ARG_OF_PERICENTER":95.5481,"MEAN_ANOMALY":264.6631,"EPHEMERIS_TYPE":0,"CLASSIFICATION_TYPE":"U","NORAD_CAT_ID":59051,"ELEMENT_SET_NO":999,"REV_AT_EPOCH":10516,"BSTAR":5.4288673e-5,"MEAN_MOTION_DOT":7.7e-7,"MEAN_MOTION_DDOT":0},{"OBJECT_NAME":"NOAA 16 DEB","OBJECT_ID":"2000-055U","EPOCH":"2026-03-09T17:09:33.420096","MEAN_MOTION":14.23349275,"ECCENTRICITY":0.00196246,"INCLINATION":98.6851,"RA_OF_ASC_NODE":155.3525,"ARG_OF_PERICENTER":197.9935,"MEAN_ANOMALY":162.0551,"EPHEMERIS_TYPE":0,"CLASSIFICATION_TYPE":"U","NORAD_CAT_ID":41061,"ELEMENT_SET_NO":999,"REV_AT_EPOCH":53216,"BSTAR":0.00087023205,"MEAN_MOTION_DOT":1.933e-5,"MEAN_MOTION_DDOT":0}]
